[{"OBJECT_NAME":"STARLINK-32917","OBJECT_ID":"2025-027Q","EPOCH":"2026-03-09T12:09:08.632224","MEAN_MOTION":15.27592054,"ECCENTRICITY":0.00013213,"INCLINATION":43.0025,"RA_OF_ASC_NODE":129.9579,"ARG_OF_PERICENTER":253.0192,"MEAN_ANOMALY":107.0515,"EPHEMERIS_TYPE":0,"CLASSIFICATION_TYPE":"U","NORAD_CAT_ID":62921,"ELEMENT_SET_NO":999,"REV_AT_EPOCH":6151,"BSTAR":0.0011730927,"MEAN_MOTION_DOT":0.00032172,"MEAN_MOTION_DDOT":0},{"OBJECT_NAME":"OBJECT H","OBJECT_ID":"2025-055H","EPOCH":"2026-03-09T23:29:50.051328","MEAN_MOTION":15.30330066,"ECCENTRICITY":0.00075967,"INCLINATION":97.636,"RA_OF_ASC_NODE":211.9572,"ARG_OF_PERICENTER":140.4354,"MEAN_ANOMALY":219.7441,"EPHEMERIS_TYPE":0,"CLASSIFICATION_TYPE":"U","NORAD_CAT_ID":63298,"ELEMENT_SET_NO":999,"REV_AT_EPOCH":5423,"BSTAR":0.0015582864,"MEAN_MOTION_DOT":0.00045901,"MEAN_MOTION_DDOT":0}]
